start=new Date('2022-09-19T00:00:00.000Z').valueOf();
sats=[{"NORAD_CAT_ID":"45757","MEAN_MOTION_DOT":"0.00001088","TLE_LINE2":"2 45757  53.0549 148.1488 0001499  68.2190 291.8958 15.06398638125378","LAUNCH_DATE":"2020-06-13","OBJECT_TYPE":"PAYLOAD","RCS_SIZE":"LARGE","MEAN_ANOMALY":"291.8958","DECAY_DATE":null,"PERIAPSIS":"546.180","ARG_OF_PERICENTER":"68.2190","EPHEMERIS_TYPE":"0","TLE_LINE1":"1 45757U 20038AD  22261.85701064  .00001088  00000-0  91957-4 0  9997","MEAN_ELEMENT_THEORY":"SGP4","ELEMENT_SET_NO":"999","APOAPSIS":"548.256","PERIOD":"95.592","TIME_SYSTEM":"UTC","OBJECT_NAME":"STARLINK-1486","CENTER_NAME":"EARTH","BSTAR":"0.00009195700000","MEAN_MOTION_DDOT":"0.0000000000000","CLASSIFICATION_TYPE":"U","MEAN_MOTION":"15.06398638","GP_ID":"212961512","INCLINATION":"53.0549","REF_FRAME":"TEME","REV_AT_EPOCH":"12537","COUNTRY_CODE":"US","FILE":"3577422","SEMIMAJOR_AXIS":"6925.353","EPOCH":"2022-09-18T20:34:05.719296","OBJECT_ID":"2020-038AD","SITE":"AFETR","RA_OF_ASC_NODE":"148.1488","ECCENTRICITY":"0.00014990"},{"SITE":"AFETR","OBJECT_ID":"2020-038AE","RA_OF_ASC_NODE":"148.1730","ECCENTRICITY":"0.00015180","COUNTRY_CODE":"US","FILE":"3577422","SEMIMAJOR_AXIS":"6925.366","EPOCH":"2022-09-18T20:23:29.217408","CLASSIFICATION_TYPE":"U","MEAN_MOTION":"15.06394203","GP_ID":"212962261","INCLINATION":"53.0549","REF_FRAME":"TEME","REV_AT_EPOCH":"12537","APOAPSIS":"548.283","ELEMENT_SET_NO":"999","PERIOD":"95.593","TIME_SYSTEM":"UTC","OBJECT_NAME":"STARLINK-1487","CENTER_NAME":"EARTH","BSTAR":"0.00009320000000","MEAN_MOTION_DDOT":"0.0000000000000","TLE_LINE1":"1 45758U 20038AE  22261.84964372  .00001107  00000-0  93200-4 0  9995","MEAN_ELEMENT_THEORY":"SGP4","DECAY_DATE":null,"PERIAPSIS":"546.180","ARG_OF_PERICENTER":"56.2359","EPHEMERIS_TYPE":"0","TLE_LINE2":"2 45758  53.0549 148.1730 0001518  56.2359 303.8774 15.06394203125379","LAUNCH_DATE":"2020-06-13","OBJECT_TYPE":"PAYLOAD","RCS_SIZE":"LARGE","MEAN_ANOMALY":"303.8774","NORAD_CAT_ID":"45758","MEAN_MOTION_DOT":"0.00001107"},{"FILE":"3577422","SEMIMAJOR_AXIS":"6925.308","COUNTRY_CODE":"US","EPOCH":"2022-09-18T19:56:57.433920","OBJECT_ID":"2020-038AF","SITE":"AFETR","RA_OF_ASC_NODE":"148.2648","ECCENTRICITY":"0.00015390","OBJECT_NAME":"STARLINK-1493","ELEMENT_SET_NO":"999","APOAPSIS":"548.239","PERIOD":"95.591","TIME_SYSTEM":"UTC","MEAN_MOTION_DDOT":"0.0000000000000","CENTER_NAME":"EARTH","BSTAR":"0.00078791000000","MEAN_MOTION":"15.06413282","CLASSIFICATION_TYPE":"U","REF_FRAME":"TEME","REV_AT_EPOCH":"12537","GP_ID":"212963005","INCLINATION":"53.0529","ARG_OF_PERICENTER":"60.0137","DECAY_DATE":null,"PERIAPSIS":"546.107","EPHEMERIS_TYPE":"0","TLE_LINE1":"1 45759U 20038AF  22261.83122030  .00011478  00000-0  78791-3 0  9991","MEAN_ELEMENT_THEORY":"SGP4","NORAD_CAT_ID":"45759","MEAN_MOTION_DOT":"0.00011478","OBJECT_TYPE":"PAYLOAD","TLE_LINE2":"2 45759  53.0529 148.2648 0001539  60.0137 300.1004 15.06413282125372","LAUNCH_DATE":"2020-06-13","MEAN_ANOMALY":"300.1004","RCS_SIZE":"LARGE"},{"MEAN_MOTION_DOT":"0.00002197","NORAD_CAT_ID":"45760","RCS_SIZE":"LARGE","MEAN_ANOMALY":"305.9825","LAUNCH_DATE":"2020-06-13","TLE_LINE2":"2 45760  53.0531 148.2384 0001211  54.1276 305.9825 15.06403569125381","OBJECT_TYPE":"PAYLOAD","EPHEMERIS_TYPE":"0","PERIAPSIS":"546.364","DECAY_DATE":null,"ARG_OF_PERICENTER":"54.1276","MEAN_ELEMENT_THEORY":"SGP4","TLE_LINE1":"1 45760U 20038AG  22261.83489599  .00002197  00000-0  16632-3 0  9993","BSTAR":"0.00016632000000","CENTER_NAME":"EARTH","MEAN_MOTION_DDOT":"0.0000000000000","APOAPSIS":"548.041","ELEMENT_SET_NO":"999","PERIOD":"95.592","TIME_SYSTEM":"UTC","OBJECT_NAME":"STARLINK-1494","INCLINATION":"53.0531","GP_ID":"212963258","REV_AT_EPOCH":"12538","REF_FRAME":"TEME","MEAN_MOTION":"15.06403569","CLASSIFICATION_TYPE":"U","EPOCH":"2022-09-18T20:02:15.013536","COUNTRY_CODE":"US","SEMIMAJOR_AXIS":"6925.338","FILE":"3577422","ECCENTRICITY":"0.00012110","OBJECT_ID":"2020-038AG","SITE":"AFETR","RA_OF_ASC_NODE":"148.2384"},{"ARG_OF_PERICENTER":"279.9114","DECAY_DATE":null,"PERIAPSIS":"333.752","EPHEMERIS_TYPE":"0","TLE_LINE1":"1 45761U 20038AH  22261.63680543  .00018750  00000-0  11794-3 0  9990","MEAN_ELEMENT_THEORY":"SGP4","NORAD_CAT_ID":"45761","MEAN_MOTION_DOT":"0.00018750","OBJECT_TYPE":"PAYLOAD","TLE_LINE2":"2 45761  53.0416 346.2346 0008764 279.9114  80.0916 15.76756391127644","LAUNCH_DATE":"2020-06-13","MEAN_ANOMALY":"80.0916","RCS_SIZE":"LARGE","FILE":"3577422","SEMIMAJOR_AXIS":"6717.775","COUNTRY_CODE":"US","EPOCH":"2022-09-18T15:16:59.989152","SITE":"AFETR","OBJECT_ID":"2020-038AH","RA_OF_ASC_NODE":"346.2346","ECCENTRICITY":"0.00087640","OBJECT_NAME":"STARLINK-1495","APOAPSIS":"345.527","TIME_SYSTEM":"UTC","PERIOD":"91.327","ELEMENT_SET_NO":"999","MEAN_MOTION_DDOT":"0.0000000000000","CENTER_NAME":"EARTH","BSTAR":"0.00011794000000","CLASSIFICATION_TYPE":"U","MEAN_MOTION":"15.76756391","REF_FRAME":"TEME","REV_AT_EPOCH":"12764","GP_ID":"212962012","INCLINATION":"53.0416"},{"NORAD_CAT_ID":"45762","MEAN_MOTION_DOT":"0.00014777","LAUNCH_DATE":"2020-06-13","TLE_LINE2":"2 45762  53.0540 146.1322 0001464  87.6394 272.4764 15.09517646125424","OBJECT_TYPE":"PAYLOAD","RCS_SIZE":"LARGE","MEAN_ANOMALY":"272.4764","PERIAPSIS":"536.662","DECAY_DATE":null,"ARG_OF_PERICENTER":"87.6394","EPHEMERIS_TYPE":"0","TLE_LINE1":"1 45762U 20038AJ  22261.89285197  .00014777  00000-0  92726-3 0  9994","MEAN_ELEMENT_THEORY":"SGP4","APOAPSIS":"538.687","PERIOD":"95.395","TIME_SYSTEM":"UTC","ELEMENT_SET_NO":"999","OBJECT_NAME":"STARLINK-1499","BSTAR":"0.00092726000000","CENTER_NAME":"EARTH","MEAN_MOTION_DDOT":"0.0000000000000","CLASSIFICATION_TYPE":"U","MEAN_MOTION":"15.09517646","INCLINATION":"53.0540","GP_ID":"212961762","REV_AT_EPOCH":"12542","REF_FRAME":"TEME","COUNTRY_CODE":"US","SEMIMAJOR_AXIS":"6915.810","FILE":"3577422","EPOCH":"2022-09-18T21:25:42.410208","SITE":"AFETR","OBJECT_ID":"2020-038AJ","RA_OF_ASC_NODE":"146.1322","ECCENTRICITY":"0.00014640"},{"RCS_SIZE":"LARGE","MEAN_ANOMALY":"286.5742","LAUNCH_DATE":"2020-06-13","TLE_LINE2":"2 45764  53.0553 148.1152 0001493  73.5411 286.5742 15.06386695125392","OBJECT_TYPE":"PAYLOAD","MEAN_MOTION_DOT":"-0.00000694","NORAD_CAT_ID":"45764","MEAN_ELEMENT_THEORY":"SGP4","TLE_LINE1":"1 45764U 20038AL  22261.86439660 -.00000694  00000-0 -27678-4 0  9999","EPHEMERIS_TYPE":"0","PERIAPSIS":"546.220","DECAY_DATE":null,"ARG_OF_PERICENTER":"73.5411","INCLINATION":"53.0553","GP_ID":"212962507","REV_AT_EPOCH":"12539","REF_FRAME":"TEME","CLASSIFICATION_TYPE":"U","MEAN_MOTION":"15.06386695","BSTAR":"-0.00002767800000","CENTER_NAME":"EARTH","MEAN_MOTION_DDOT":"0.0000000000000","PERIOD":"95.593","APOAPSIS":"548.288","ELEMENT_SET_NO":"999","TIME_SYSTEM":"UTC","OBJECT_NAME":"STARLINK-1502","ECCENTRICITY":"0.00014930","RA_OF_ASC_NODE":"148.1152","SITE":"AFETR","OBJECT_ID":"2020-038AL","EPOCH":"2022-09-18T20:44:43.866240","COUNTRY_CODE":"US","SEMIMAJOR_AXIS":"6925.389","FILE":"3577422"},{"SEMIMAJOR_AXIS":"6925.360","FILE":"3577422","COUNTRY_CODE":"US","EPOCH":"2022-09-18T20:28:47.395776","OBJECT_ID":"2020-038AN","SITE":"AFETR","RA_OF_ASC_NODE":"148.1516","ECCENTRICITY":"0.00013240","OBJECT_NAME":"STARLINK-1509","APOAPSIS":"548.142","ELEMENT_SET_NO":"999","PERIOD":"95.592","TIME_SYSTEM":"UTC","MEAN_MOTION_DDOT":"0.0000000000000","BSTAR":"0.00026601000000","CENTER_NAME":"EARTH","MEAN_MOTION":"15.06396221","CLASSIFICATION_TYPE":"U","REV_AT_EPOCH":"12537","REF_FRAME":"TEME","INCLINATION":"53.0540","GP_ID":"212962759","ARG_OF_PERICENTER":"70.7238","PERIAPSIS":"546.308","DECAY_DATE":null,"EPHEMERIS_TYPE":"0","TLE_LINE1":"1 45766U 20038AN  22261.85332634  .00003683  00000-0  26601-3 0  9996","MEAN_ELEMENT_THEORY":"SGP4","NORAD_CAT_ID":"45766","MEAN_MOTION_DOT":"0.00003683","OBJECT_TYPE":"PAYLOAD","LAUNCH_DATE":"2020-06-13","TLE_LINE2":"2 45766  53.0540 148.1516 0001324  70.7238 289.3894 15.06396221125376","MEAN_ANOMALY":"289.3894","RCS_SIZE":"LARGE"},{"ECCENTRICITY":"0.00012610","RA_OF_ASC_NODE":"148.1997","SITE":"AFETR","OBJECT_ID":"2020-038AP","EPOCH":"2022-09-18T20:18:11.504736","COUNTRY_CODE":"US","FILE":"3577422","SEMIMAJOR_AXIS":"6925.380","GP_ID":"212961513","INCLINATION":"53.0538","REF_FRAME":"TEME","REV_AT_EPOCH":"12537","CLASSIFICATION_TYPE":"U","MEAN_MOTION":"15.06389580","CENTER_NAME":"EARTH","BSTAR":"0.00033291000000","MEAN_MOTION_DDOT":"0.0000000000000","ELEMENT_SET_NO":"999","APOAPSIS":"548.119","PERIOD":"95.593","TIME_SYSTEM":"UTC","OBJECT_NAME":"STARLINK-1511","MEAN_ELEMENT_THEORY":"SGP4","TLE_LINE1":"1 45767U 20038AP  22261.84596649  .00004679  00000-0  33291-3 0  9993","EPHEMERIS_TYPE":"0","DECAY_DATE":null,"PERIAPSIS":"546.372","ARG_OF_PERICENTER":"76.3795","RCS_SIZE":"LARGE","MEAN_ANOMALY":"283.7334","TLE_LINE2":"2 45767  53.0538 148.1997 0001261  76.3795 283.7334 15.06389580125374","LAUNCH_DATE":"2020-06-13","OBJECT_TYPE":"PAYLOAD","MEAN_MOTION_DOT":"0.00004679","NORAD_CAT_ID":"45767"},{"MEAN_ELEMENT_THEORY":"SGP4","TLE_LINE1":"1 45768U 20038AQ  22261.89387382  .00003329  00000-0  24232-3 0  9997","EPHEMERIS_TYPE":"0","PERIAPSIS":"546.252","DECAY_DATE":null,"ARG_OF_PERICENTER":"86.6768","RCS_SIZE":"LARGE","MEAN_ANOMALY":"273.4382","LAUNCH_DATE":"2020-06-13","TLE_LINE2":"2 45768  53.0536 147.9660 0001410  86.6768 273.4382 15.06395151125399","OBJECT_TYPE":"PAYLOAD","MEAN_MOTION_DOT":"0.00003329","NORAD_CAT_ID":"45768","ECCENTRICITY":"0.00014100","SITE":"AFETR","RA_OF_ASC_NODE":"147.9660","OBJECT_ID":"2020-038AQ","EPOCH":"2022-09-18T21:27:10.698048","COUNTRY_CODE":"US","SEMIMAJOR_AXIS":"6925.363","FILE":"3577422","INCLINATION":"53.0536","GP_ID":"212962262","REV_AT_EPOCH":"12539","REF_FRAME":"TEME","MEAN_MOTION":"15.06395151","CLASSIFICATION_TYPE":"U","BSTAR":"0.00024232000000","CENTER_NAME":"EARTH","MEAN_MOTION_DDOT":"0.0000000000000","TIME_SYSTEM":"UTC","APOAPSIS":"548.205","PERIOD":"95.592","ELEMENT_SET_NO":"999","OBJECT_NAME":"STARLINK-1521"}];
